{"type": "FeatureCollection", "features": [ {"type": "Feature", "properties": {"norad_id": 66400, "name": "STARLINK-35667", "group": "last-30-days", "lat": 19.916568256408926, "lon": 82.67090402765571, "alt_km": 444.883337315905, "timestamp": "2025-12-09T16:56:35.357488+00:00", "meta": {"OBJECT_NAME": "STARLINK-35667", "OBJECT_ID": "2025-257W", "EPOCH": "2025-12-09T12:00:02.000160", "MEAN_MOTION": 15.39590418, "ECCENTRICITY": 0.0001248, "INCLINATION": 53.1594, "RA_OF_ASC_NODE": 279.4037, "ARG_OF_PERICENTER": 92.162, "MEAN_ANOMALY": 0.4562, "EPHEMERIS_TYPE": 0, "CLASSIFICATION_TYPE": "U", "NORAD_CAT_ID": 66400, "ELEMENT_SET_NO": 999, "REV_AT_EPOCH": 597, "BSTAR": 0.00036662, "MEAN_MOTION_DOT": 0.00014278, "MEAN_MOTION_DDOT": 0}, "tle": {"line1": "1 66400U 25257W   25343.50002315  .00014278  00000+0  36662-3 0  9997", "line2": "2 66400  53.1594 279.4037 0001248  92.1620   0.4562 15.39590418  5975"}}, "geometry": {"type": "Point", "coordinates": [82.67090402765571, 19.916568256408926]}}, {"type": "Feature", "properties": {"norad_id": 66401, "name": "STARLINK-35668", "group": "last-30-days", "lat": 18.500382932322218, "lon": 83.90099737892989, "alt_km": 445.00752007227857, "timestamp": "2025-12-09T16:56:35.357500+00:00", "meta": {"OBJECT_NAME": "STARLINK-35668", "OBJECT_ID": "2025-257X", "EPOCH": "2025-12-09T12:00:02.000160", "MEAN_MOTION": 15.39591353, "ECCENTRICITY": 0.0001372, "INCLINATION": 53.1594, "RA_OF_ASC_NODE": 279.4002, "ARG_OF_PERICENTER": 98.0302, "MEAN_ANOMALY": 356.4188, "EPHEMERIS_TYPE": 0, "CLASSIFICATION_TYPE": "U", "NORAD_CAT_ID": 66401, "ELEMENT_SET_NO": 999, "REV_AT_EPOCH": 597, "BSTAR": 0.00036923, "MEAN_MOTION_DOT": 0.00014383, "MEAN_MOTION_DDOT": 0}, "tle": {"line1": "1 66401U 25257X   25343.50002315  .00014383  00000+0  36923-3 0  9995", "line2": "2 66401  53.1594 279.4002 0001372  98.0302 356.4188 15.39591353  5975"}}, "geometry": {"type": "Point", "coordinates": [83.90099737892989, 18.500382932322218]}}, {"type": "Feature", "properties": {"norad_id": 66402, "name": "STARLINK-35644", "group": "last-30-days", "lat": 37.24200077026509, "lon": 63.73478606644552, "alt_km": 441.78170810640313, "timestamp": "2025-12-09T16:56:35.357510+00:00", "meta": {"OBJECT_NAME": "STARLINK-35644", "OBJECT_ID": "2025-257Y", "EPOCH": "2025-12-09T12:00:02.000160", "MEAN_MOTION": 15.3958796, "ECCENTRICITY": 0.0001235, "INCLINATION": 53.1596, "RA_OF_ASC_NODE": 279.4515, "ARG_OF_PERICENTER": 99.3381, "MEAN_ANOMALY": 329.3659, "EPHEMERIS_TYPE": 0, "CLASSIFICATION_TYPE": "U", "NORAD_CAT_ID": 66402, "ELEMENT_SET_NO": 999, "REV_AT_EPOCH": 597, "BSTAR": 0.00040854, "MEAN_MOTION_DOT": 0.00015959, "MEAN_MOTION_DDOT": 0}, "tle": {"line1": "1 66402U 25257Y   25343.50002315  .00015959  00000+0  40854-3 0  9994", "line2": "2 66402  53.1596 279.4515 0001235  99.3381 329.3659 15.39587960  5977"}}, "geometry": {"type": "Point", "coordinates": [63.73478606644552, 37.24200077026509]}}, {"type": "Feature", "properties": {"norad_id": 66403, "name": "STARLINK-35602", "group": "last-30-days", "lat": -0.4422310904304014, "lon": 98.7132135007514, "alt_km": 448.1600877378405, "timestamp": "2025-12-09T16:56:35.357521+00:00", "meta": {"OBJECT_NAME": "STARLINK-35602", "OBJECT_ID": "2025-257Z", "EPOCH": "2025-12-09T12:00:02.000160", "MEAN_MOTION": 15.39593258, "ECCENTRICITY": 0.0001093, "INCLINATION": 53.1587, "RA_OF_ASC_NODE": 279.3523, "ARG_OF_PERICENTER": 96.8507, "MEAN_ANOMALY": 21.5036, "EPHEMERIS_TYPE": 0, "CLASSIFICATION_TYPE": "U", "NORAD_CAT_ID": 66403, "ELEMENT_SET_NO": 999, "REV_AT_EPOCH": 597, "BSTAR": 0.00043358, "MEAN_MOTION_DOT": 0.00016967, "MEAN_MOTION_DDOT": 0}, "tle": {"line1": "1 66403U 25257Z   25343.50002315  .00016967  00000+0  43358-3 0  9997", "line2": "2 66403  53.1587 279.3523 0001093  96.8507  21.5036 15.39593258  5977"}}, "geometry": {"type": "Point", "coordinates": [98.7132135007514, -0.4422310904304014]}}, {"type": "Feature", "properties": {"norad_id": 66404, "name": "STARLINK-35691", "group": "last-30-days", "lat": -1.9143324108286712, "lon": 99.8133038623531, "alt_km": 448.4096763225216, "timestamp": "2025-12-09T16:56:35.357531+00:00", "meta": {"OBJECT_NAME": "STARLINK-35691", "OBJECT_ID": "2025-257AA", "EPOCH": "2025-12-09T12:00:02.000160", "MEAN_MOTION": 15.39586013, "ECCENTRICITY": 0.0001001, "INCLINATION": 53.1589, "RA_OF_ASC_NODE": 279.348, "ARG_OF_PERICENTER": 95.6081, "MEAN_ANOMALY": 24.5919, "EPHEMERIS_TYPE": 0, "CLASSIFICATION_TYPE": "U", "NORAD_CAT_ID": 66404, "ELEMENT_SET_NO": 999, "REV_AT_EPOCH": 597, "BSTAR": 0.00053717, "MEAN_MOTION_DOT": 0.00021122, "MEAN_MOTION_DDOT": 0}, "tle": {"line1": "1 66404U 25257AA  25343.50002315  .00021122  00000+0  53717-3 0  9997", "line2": "2 66404  53.1589 279.3480 0001001  95.6081  24.5919 15.39586013  5979"}}, "geometry": {"type": "Point", "coordinates": [99.8133038623531, -1.9143324108286712]}}, {"type": "Feature", "properties": {"norad_id": 66405, "name": "STARLINK-35683", "group": "last-30-days", "lat": -21.860706701007448, "lon": 115.8314058865609, "alt_km": 447.5816026252078, "timestamp": "2025-12-09T16:56:35.357542+00:00", "meta": {"OBJECT_NAME": "STARLINK-35683", "OBJECT_ID": "2025-257AB", "EPOCH": "2025-12-09T12:00:02.000160", "MEAN_MOTION": 15.41650584, "ECCENTRICITY": 0.0001485, "INCLINATION": 53.159, "RA_OF_ASC_NODE": 279.2988, "ARG_OF_PERICENTER": 99.4432, "MEAN_ANOMALY": 44.9382, "EPHEMERIS_TYPE": 0, "CLASSIFICATION_TYPE": "U", "NORAD_CAT_ID": 66405, "ELEMENT_SET_NO": 999, "REV_AT_EPOCH": 581, "BSTAR": -0.056692, "MEAN_MOTION_DOT": -0.02142607, "MEAN_MOTION_DDOT": 0}, "tle": {"line1": "1 66405U 25257AB  25343.50002315 -.02142607  00000+0 -56692-1 0  9997", "line2": "2 66405  53.1590 279.2988 0001485  99.4432  44.9382 15.41650584  5813"}}, "geometry": {"type": "Point", "coordinates": [115.8314058865609, -21.860706701007448]}}, {"type": "Feature", "properties": {"norad_id": 66406, "name": "STARLINK-34840", "group": "last-30-days", "lat": -45.73789447272886, "lon": 148.54791152468565, "alt_km": 423.36578683913376, "timestamp": "2025-12-09T16:56:35.357554+00:00", "meta": {"OBJECT_NAME": "STARLINK-34840", "OBJECT_ID": "2025-257AC", "EPOCH": "2025-12-09T03:30:43.394976", "MEAN_MOTION": 15.49354882, "ECCENTRICITY": 0.00015279, "INCLINATION": 53.1583, "RA_OF_ASC_NODE": 280.9311, "ARG_OF_PERICENTER": 119.5894, "MEAN_ANOMALY": 240.5267, "EPHEMERIS_TYPE": 0, "CLASSIFICATION_TYPE": "U", "NORAD_CAT_ID": 66406, "ELEMENT_SET_NO": 999, "REV_AT_EPOCH": 576, "BSTAR": 0.0021272153, "MEAN_MOTION_DOT": 0.00119885, "MEAN_MOTION_DDOT": 0}, "tle": {"line1": "1 66406U 25257AC  25343.14633559  .00119885  00000+0  21272-2 0  9993", "line2": "2 66406  53.1583 280.9311 0001527 119.5894 240.5267 15.49354882  5768"}}, "geometry": {"type": "Point", "coordinates": [148.54791152468565, -45.73789447272886]}}, {"type": "Feature", "properties": {"norad_id": 66407, "name": "STARLINK-35686", "group": "last-30-days", "lat": -35.890700157301396, "lon": 131.14384625862922, "alt_km": 439.7988417423885, "timestamp": "2025-12-09T16:56:35.357564+00:00", "meta": {"OBJECT_NAME": "STARLINK-35686", "OBJECT_ID": "2025-257AD", "EPOCH": "2025-12-09T12:00:02.000160", "MEAN_MOTION": 15.4469371, "ECCENTRICITY": 0.0001196, "INCLINATION": 53.1587, "RA_OF_ASC_NODE": 279.2642, "ARG_OF_PERICENTER": 85.7624, "MEAN_ANOMALY": 75.756, "EPHEMERIS_TYPE": 0, "CLASSIFICATION_TYPE": "U", "NORAD_CAT_ID": 66407, "ELEMENT_SET_NO": 999, "REV_AT_EPOCH": 597, "BSTAR": -0.049686, "MEAN_MOTION_DOT": -0.0208941, "MEAN_MOTION_DDOT": 0}, "tle": {"line1": "1 66407U 25257AD  25343.50002315 -.02089410  00000+0 -49686-1 0  9996", "line2": "2 66407  53.1587 279.2642 0001196  85.7624  75.7560 15.44693710  5976"}}, "geometry": {"type": "Point", "coordinates": [131.14384625862922, -35.890700157301396]}}, {"type": "Feature", "properties": {"norad_id": 66408, "name": "STARLINK-35679", "group": "last-30-days", "lat": -44.69605776620033, "lon": 146.14769093751414, "alt_km": 423.7668961932213, "timestamp": "2025-12-09T16:56:35.357575+00:00", "meta": {"OBJECT_NAME": "STARLINK-35679", "OBJECT_ID": "2025-257AE", "EPOCH": "2025-12-09T05:04:06.822048", "MEAN_MOTION": 15.49344451, "ECCENTRICITY": 0.0001457, "INCLINATION": 53.1586, "RA_OF_ASC_NODE": 280.6256, "ARG_OF_PERICENTER": 79.4108, "MEAN_ANOMALY": 280.7065, "EPHEMERIS_TYPE": 0, "CLASSIFICATION_TYPE": "U", "NORAD_CAT_ID": 66408, "ELEMENT_SET_NO": 999, "REV_AT_EPOCH": 583, "BSTAR": 0.0022741, "MEAN_MOTION_DOT": 0.00128284, "MEAN_MOTION_DDOT": 0}, "tle": {"line1": "1 66408U 25257AE  25343.21119007  .00128284  00000+0  22741-2 0  9995", "line2": "2 66408  53.1586 280.6256 0001457  79.4108 280.7065 15.49344451  5833"}}, "geometry": {"type": "Point", "coordinates": [146.14769093751414, -44.69605776620033]}}, {"type": "Feature", "properties": {"norad_id": 66409, "name": "CHUTIAN-2 A", "group": "last-30-days", "lat": 81.15471500978515, "lon": -20.778250586568834, "alt_km": 720.077850343012, "timestamp": "2025-12-09T16:56:35.357587+00:00", "meta": {"OBJECT_NAME": "CHUTIAN-2 A", "OBJECT_ID": "2025-256A", "EPOCH": "2025-12-09T11:34:28.235136", "MEAN_MOTION": 14.49935301, "ECCENTRICITY": 0.0013552, "INCLINATION": 98.277, "RA_OF_ASC_NODE": 48.3, "ARG_OF_PERICENTER": 187.6122, "MEAN_ANOMALY": 172.4869, "EPHEMERIS_TYPE": 0, "CLASSIFICATION_TYPE": "U", "NORAD_CAT_ID": 66409, "ELEMENT_SET_NO": 999, "REV_AT_EPOCH": 440, "BSTAR": 0.00044175, "MEAN_MOTION_DOT": 1.666e-05, "MEAN_MOTION_DDOT": 0}, "tle": {"line1": "1 66409U 25256A   25343.48227124  .00001666  00000+0  44175-3 0  9994", "line2": "2 66409  98.2770  48.3000 0013552 187.6122 172.4869 14.49935301  4402"}}, "geometry": {"type": "Point", "coordinates": [-20.778250586568834, 81.15471500978515]}}]}